{"type": "FeatureCollection", "features": [ {"type": "Feature", "properties": {"norad_id": 66492, "name": "STARLINK-35673", "group": "last-30-days", "lat": -11.15956378507033, "lon": -5.962455723551793, "alt_km": 392.90841967591314, "timestamp": "2025-12-06T11:28:09.785735+00:00", "meta": {"OBJECT_NAME": "STARLINK-35673", "OBJECT_ID": "2025-263H", "EPOCH": "2025-12-05T22:00:03.000096", "MEAN_MOTION": 15.60896838, "ECCENTRICITY": 0.00015869, "INCLINATION": 42.9993, "RA_OF_ASC_NODE": 165.1435, "ARG_OF_PERICENTER": 267.7611, "MEAN_ANOMALY": 13.8744, "EPHEMERIS_TYPE": 0, "CLASSIFICATION_TYPE": "U", "NORAD_CAT_ID": 66492, "ELEMENT_SET_NO": 999, "REV_AT_EPOCH": 453, "BSTAR": -0.026099397, "MEAN_MOTION_DOT": -0.01974343, "MEAN_MOTION_DDOT": 0}, "tle": {"line1": "1 66492U 25263H   25339.91670139 -.01974343  00000+0 -26099-1 0  9992", "line2": "2 66492  42.9993 165.1435 0001586 267.7611  13.8744 15.60896838  4533"}}, "geometry": {"type": "Point", "coordinates": [-5.962455723551793, -11.15956378507033]}}, {"type": "Feature", "properties": {"norad_id": 66493, "name": "STARLINK-35597", "group": "last-30-days", "lat": -12.432327438345117, "lon": -4.505211794655491, "alt_km": 392.9857147722987, "timestamp": "2025-12-06T11:28:09.785747+00:00", "meta": {"OBJECT_NAME": "STARLINK-35597", "OBJECT_ID": "2025-263J", "EPOCH": "2025-12-05T22:00:03.000096", "MEAN_MOTION": 15.60902369, "ECCENTRICITY": 0.00016136, "INCLINATION": 42.9994, "RA_OF_ASC_NODE": 165.138, "ARG_OF_PERICENTER": 267.2046, "MEAN_ANOMALY": 16.3455, "EPHEMERIS_TYPE": 0, "CLASSIFICATION_TYPE": "U", "NORAD_CAT_ID": 66493, "ELEMENT_SET_NO": 999, "REV_AT_EPOCH": 453, "BSTAR": -0.026194737, "MEAN_MOTION_DOT": -0.01981067, "MEAN_MOTION_DDOT": 0}, "tle": {"line1": "1 66493U 25263J   25339.91670139 -.01981067  00000+0 -26195-1 0  9991", "line2": "2 66493  42.9994 165.1380 0001613 267.2046  16.3455 15.60902369  4536"}}, "geometry": {"type": "Point", "coordinates": [-4.505211794655491, -12.432327438345117]}}, {"type": "Feature", "properties": {"norad_id": 66494, "name": "STARLINK-35689", "group": "last-30-days", "lat": -8.593098610460766, "lon": -8.842509801140991, "alt_km": 392.65777587737284, "timestamp": "2025-12-06T11:28:09.785757+00:00", "meta": {"OBJECT_NAME": "STARLINK-35689", "OBJECT_ID": "2025-263K", "EPOCH": "2025-12-05T22:00:03.000096", "MEAN_MOTION": 15.60902059, "ECCENTRICITY": 0.00015662, "INCLINATION": 42.9994, "RA_OF_ASC_NODE": 165.153, "ARG_OF_PERICENTER": 265.1917, "MEAN_ANOMALY": 12.6076, "EPHEMERIS_TYPE": 0, "CLASSIFICATION_TYPE": "U", "NORAD_CAT_ID": 66494, "ELEMENT_SET_NO": 999, "REV_AT_EPOCH": 453, "BSTAR": -0.026182979, "MEAN_MOTION_DOT": -0.01980231, "MEAN_MOTION_DDOT": 0}, "tle": {"line1": "1 66494U 25263K   25339.91670139 -.01980231  00000+0 -26183-1 0  9991", "line2": "2 66494  42.9994 165.1530 0001566 265.1917  12.6076 15.60902059  4539"}}, "geometry": {"type": "Point", "coordinates": [-8.842509801140991, -8.593098610460766]}}, {"type": "Feature", "properties": {"norad_id": 66495, "name": "STARLINK-35832", "group": "last-30-days", "lat": -13.697179005305863, "lon": -3.0325515810744834, "alt_km": 393.16361600305845, "timestamp": "2025-12-06T11:28:09.785768+00:00", "meta": {"OBJECT_NAME": "STARLINK-35832", "OBJECT_ID": "2025-263L", "EPOCH": "2025-12-05T22:00:03.000096", "MEAN_MOTION": 15.60898656, "ECCENTRICITY": 0.00016113, "INCLINATION": 42.9996, "RA_OF_ASC_NODE": 165.1336, "ARG_OF_PERICENTER": 270.8291, "MEAN_ANOMALY": 14.6385, "EPHEMERIS_TYPE": 0, "CLASSIFICATION_TYPE": "U", "NORAD_CAT_ID": 66495, "ELEMENT_SET_NO": 999, "REV_AT_EPOCH": 453, "BSTAR": -0.026124809, "MEAN_MOTION_DOT": -0.01976171, "MEAN_MOTION_DDOT": 0}, "tle": {"line1": "1 66495U 25263L   25339.91670139 -.01976171  00000+0 -26125-1 0  9996", "line2": "2 66495  42.9996 165.1336 0001611 270.8291  14.6385 15.60898656  4537"}}, "geometry": {"type": "Point", "coordinates": [-3.0325515810744834, -13.697179005305863]}}, {"type": "Feature", "properties": {"norad_id": 66496, "name": "STARLINK-35909", "group": "last-30-days", "lat": -14.953735882812117, "lon": -1.543544583038961, "alt_km": 393.1448049507062, "timestamp": "2025-12-06T11:28:09.785777+00:00", "meta": {"OBJECT_NAME": "STARLINK-35909", "OBJECT_ID": "2025-263M", "EPOCH": "2025-12-05T22:00:03.000096", "MEAN_MOTION": 15.60905624, "ECCENTRICITY": 0.00015889, "INCLINATION": 42.9993, "RA_OF_ASC_NODE": 165.1287, "ARG_OF_PERICENTER": 266.5085, "MEAN_ANOMALY": 20.8743, "EPHEMERIS_TYPE": 0, "CLASSIFICATION_TYPE": "U", "NORAD_CAT_ID": 66496, "ELEMENT_SET_NO": 999, "REV_AT_EPOCH": 453, "BSTAR": -0.026258011, "MEAN_MOTION_DOT": -0.01985468, "MEAN_MOTION_DDOT": 0}, "tle": {"line1": "1 66496U 25263M   25339.91670139 -.01985468  00000+0 -26258-1 0  9993", "line2": "2 66496  42.9993 165.1287 0001588 266.5085  20.8743 15.60905624  4537"}}, "geometry": {"type": "Point", "coordinates": [-1.543544583038961, -14.953735882812117]}}, {"type": "Feature", "properties": {"norad_id": 66497, "name": "STARLINK-35899", "group": "last-30-days", "lat": -16.199755479488978, "lon": -0.038383977273355456, "alt_km": 393.2254818041547, "timestamp": "2025-12-06T11:28:09.785790+00:00", "meta": {"OBJECT_NAME": "STARLINK-35899", "OBJECT_ID": "2025-263N", "EPOCH": "2025-12-05T22:00:03.000096", "MEAN_MOTION": 15.60895972, "ECCENTRICITY": 0.0001724, "INCLINATION": 42.9994, "RA_OF_ASC_NODE": 165.1235, "ARG_OF_PERICENTER": 268.798, "MEAN_ANOMALY": 20.5046, "EPHEMERIS_TYPE": 0, "CLASSIFICATION_TYPE": "U", "NORAD_CAT_ID": 66497, "ELEMENT_SET_NO": 999, "REV_AT_EPOCH": 453, "BSTAR": -0.026072687, "MEAN_MOTION_DOT": -0.01972612, "MEAN_MOTION_DDOT": 0}, "tle": {"line1": "1 66497U 25263N   25339.91670139 -.01972612  00000+0 -26073-1 0  9996", "line2": "2 66497  42.9994 165.1235 0001724 268.7980  20.5046 15.60895972  4539"}}, "geometry": {"type": "Point", "coordinates": [-0.038383977273355456, -16.199755479488978]}}, {"type": "Feature", "properties": {"norad_id": 66498, "name": "STARLINK-35907", "group": "last-30-days", "lat": -17.43704897756244, "lon": 1.488490008657973, "alt_km": 393.32343057129583, "timestamp": "2025-12-06T11:28:09.785800+00:00", "meta": {"OBJECT_NAME": "STARLINK-35907", "OBJECT_ID": "2025-263P", "EPOCH": "2025-12-05T22:00:03.000096", "MEAN_MOTION": 15.60904138, "ECCENTRICITY": 0.00015154, "INCLINATION": 42.9995, "RA_OF_ASC_NODE": 165.1183, "ARG_OF_PERICENTER": 266.7243, "MEAN_ANOMALY": 24.4952, "EPHEMERIS_TYPE": 0, "CLASSIFICATION_TYPE": "U", "NORAD_CAT_ID": 66498, "ELEMENT_SET_NO": 999, "REV_AT_EPOCH": 453, "BSTAR": -0.026245895, "MEAN_MOTION_DOT": -0.01984509, "MEAN_MOTION_DDOT": 0}, "tle": {"line1": "1 66498U 25263P   25339.91670139 -.01984509  00000+0 -26246-1 0  9997", "line2": "2 66498  42.9995 165.1183 0001515 266.7243  24.4952 15.60904138  4535"}}, "geometry": {"type": "Point", "coordinates": [1.488490008657973, -17.43704897756244]}}, {"type": "Feature", "properties": {"norad_id": 66499, "name": "STARLINK-35816", "group": "last-30-days", "lat": -19.872310416133438, "lon": 4.604024094738203, "alt_km": 393.44237498620987, "timestamp": "2025-12-06T11:28:09.785810+00:00", "meta": {"OBJECT_NAME": "STARLINK-35816", "OBJECT_ID": "2025-263Q", "EPOCH": "2025-12-05T22:00:03.000096", "MEAN_MOTION": 15.60904205, "ECCENTRICITY": 0.0001552, "INCLINATION": 42.9996, "RA_OF_ASC_NODE": 165.109, "ARG_OF_PERICENTER": 266.935, "MEAN_ANOMALY": 28.1162, "EPHEMERIS_TYPE": 0, "CLASSIFICATION_TYPE": "U", "NORAD_CAT_ID": 66499, "ELEMENT_SET_NO": 999, "REV_AT_EPOCH": 453, "BSTAR": -0.02620641, "MEAN_MOTION_DOT": -0.01981921, "MEAN_MOTION_DDOT": 0}, "tle": {"line1": "1 66499U 25263Q   25339.91670139 -.01981921  00000+0 -26206-1 0  9999", "line2": "2 66499  42.9996 165.1090 0001552 266.9350  28.1162 15.60904205  4535"}}, "geometry": {"type": "Point", "coordinates": [4.604024094738203, -19.872310416133438]}}, {"type": "Feature", "properties": {"norad_id": 66500, "name": "STARLINK-35894", "group": "last-30-days", "lat": -1.7714071640514795, "lon": -16.249795267502613, "alt_km": 403.13896693993865, "timestamp": "2025-12-06T11:28:09.785824+00:00", "meta": {"OBJECT_NAME": "STARLINK-35894", "OBJECT_ID": "2025-263R", "EPOCH": "2025-12-05T22:00:03.000096", "MEAN_MOTION": 15.5767507, "ECCENTRICITY": 0.00015245, "INCLINATION": 42.9994, "RA_OF_ASC_NODE": 165.1589, "ARG_OF_PERICENTER": 264.3297, "MEAN_ANOMALY": 10.5521, "EPHEMERIS_TYPE": 0, "CLASSIFICATION_TYPE": "U", "NORAD_CAT_ID": 66500, "ELEMENT_SET_NO": 999, "REV_AT_EPOCH": 453, "BSTAR": -0.037094243, "MEAN_MOTION_DOT": -0.02458111, "MEAN_MOTION_DDOT": 0}, "tle": {"line1": "1 66500U 25263R   25339.91670139 -.02458111  00000+0 -37094-1 0  9990", "line2": "2 66500  42.9994 165.1589 0001524 264.3297  10.5521 15.57675070  4535"}}, "geometry": {"type": "Point", "coordinates": [-16.249795267502613, -1.7714071640514795]}}, {"type": "Feature", "properties": {"norad_id": 66501, "name": "STARLINK-35897", "group": "last-30-days", "lat": -21.06628678116689, "lon": 6.1925378592736555, "alt_km": 393.942126611385, "timestamp": "2025-12-06T11:28:09.785844+00:00", "meta": {"OBJECT_NAME": "STARLINK-35897", "OBJECT_ID": "2025-263S", "EPOCH": "2025-12-05T22:00:03.000096", "MEAN_MOTION": 15.60851142, "ECCENTRICITY": 0.00018095, "INCLINATION": 42.9994, "RA_OF_ASC_NODE": 165.1038, "ARG_OF_PERICENTER": 286.8905, "MEAN_ANOMALY": 10.1121, "EPHEMERIS_TYPE": 0, "CLASSIFICATION_TYPE": "U", "NORAD_CAT_ID": 66501, "ELEMENT_SET_NO": 999, "REV_AT_EPOCH": 453, "BSTAR": -0.025444532, "MEAN_MOTION_DOT": -0.01927827, "MEAN_MOTION_DDOT": 0}, "tle": {"line1": "1 66501U 25263S   25339.91670139 -.01927827  00000+0 -25445-1 0  9992", "line2": "2 66501  42.9994 165.1038 0001809 286.8905  10.1121 15.60851142  4538"}}, "geometry": {"type": "Point", "coordinates": [6.1925378592736555, -21.06628678116689]}}]}